[{"OBJECT_NAME":"ONEWEB-0093","OBJECT_ID":"2020-020W","EPOCH":"2026-03-09T21:23:48.165216","MEAN_MOTION":13.11418053,"ECCENTRICITY":0.00013901,"INCLINATION":87.8871,"RA_OF_ASC_NODE":40.7957,"ARG_OF_PERICENTER":82.9488,"MEAN_ANOMALY":277.1798,"EPHEMERIS_TYPE":0,"CLASSIFICATION_TYPE":"U","NORAD_CAT_ID":45444,"ELEMENT_SET_NO":999,"REV_AT_EPOCH":28966,"BSTAR":0.0008071353,"MEAN_MOTION_DOT":2.99e-6,"MEAN_MOTION_DDOT":0},{"OBJECT_NAME":"UNKNOWN","OBJECT_ID":"","EPOCH":"2026-03-06T03:14:31.265376","MEAN_MOTION":12.81426946,"ECCENTRICITY":0.0149171,"INCLINATION":56.4354,"RA_OF_ASC_NODE":337.3034,"ARG_OF_PERICENTER":254.5569,"MEAN_ANOMALY":103.8838,"EPHEMERIS_TYPE":0,"CLASSIFICATION_TYPE":"U","NORAD_CAT_ID":81605,"ELEMENT_SET_NO":999,"REV_AT_EPOCH":19689,"BSTAR":-0.006199,"MEAN_MOTION_DOT":-1.613e-5,"MEAN_MOTION_DDOT":0}]
